      2.10          N: GNSS NAV DATA                        RINEX VERSION / TYPE
fic2rin                                 01/11/2019 17:02:37 PGM / RUN BY / DATE
                                                            END OF HEADER
23 19  1 10 12  0  0.0-2.009570598602e-04 1.136868377216e-12 0.000000000000e+00
    1.300000000000e+01 2.943750000000e+01 5.133428113600e-09-8.495811896095e-01
    1.581385731697e-06 1.268455083482e-02 7.767230272293e-06 5.153657707214e+03
    3.888000000000e+05 1.396983861923e-07 1.596415447054e+00 2.980232238770e-07
    9.428985146393e-01 2.182500000000e+02-2.309335247711e+00-8.379634759709e-09
    2.789401904071e-10 1.000000000000e+00 2.035000000000e+03 0.000000000000e+00
    2.400000000000e+00 0.000000000000e+00-2.002343535423e-08 1.300000000000e+01
    3.816060000000e+05 4.000000000000e+00
19 19  1 10 12  0  0.0-3.648349083960e-04 3.979039320257e-12 0.000000000000e+00
    1.400000000000e+01 7.259375000000e+01 4.135172246522e-09-2.966700844027e+00
    3.593042492867e-06 9.384633391164e-03 4.867091774940e-06 5.153619049072e+03
    3.888000000000e+05 1.750886440277e-07-1.428941120768e+00-7.264316082001e-08
    9.812178002085e-01 2.937812500000e+02 1.331771870993e+00-7.918544124861e-09
    3.360854278785e-10 1.000000000000e+00 2.035000000000e+03 0.000000000000e+00
    2.400000000000e+00 0.000000000000e+00-1.536682248116e-08 1.400000000000e+01
    3.816060000000e+05 4.000000000000e+00
32 19  1 10 12  0  0.0-2.811057493091e-04 1.693933882052e-11 0.000000000000e+00
    1.500000000000e+01 3.071875000000e+01 4.822343727116e-09 1.344024724230e+00
    1.622363924980e-06 2.449066727422e-03 7.728114724159e-06 5.153741016388e+03
    3.888000000000e+05-2.235174179077e-08 1.606269610571e+00 5.960464477539e-08
    9.563849896394e-01 2.291562500000e+02-2.634367894831e+00-8.162482857317e-09
    2.660825119761e-10 1.000000000000e+00 2.035000000000e+03 0.000000000000e+00
    2.400000000000e+00 0.000000000000e+00 4.656612873077e-10 1.500000000000e+01
    3.816060000000e+05 4.000000000000e+00
18 19  1 10 12  0  0.0 1.437170431018e-05 3.751665644813e-12 0.000000000000e+00
    2.000000000000e+01-6.331250000000e+01 4.909847371994e-09-1.830171443312e+00
   -3.017485141754e-06 1.497858110815e-02 2.888962626457e-06 5.153605440140e+03
    3.888000000000e+05 2.440065145493e-07-5.268942321511e-01 1.285225152969e-07
    9.526154432741e-01 3.162187500000e+02 1.368610357235e+00-8.308917528338e-09
   -3.571577341961e-11 1.000000000000e+00 2.035000000000e+03 0.000000000000e+00
    2.400000000000e+00 0.000000000000e+00-6.519258022308e-09 2.000000000000e+01
    3.816060000000e+05 4.000000000000e+00
31 19  1 10 12  0  0.0 6.676651537418e-05-2.614797267597e-12 0.000000000000e+00
    1.300000000000e+01-1.046875000000e+01 4.707696094439e-09-2.648023749412e+00
   -5.681067705154e-07 9.160714456812e-03 6.508082151413e-06 5.153808477402e+03
    3.888000000000e+05-1.713633537292e-07 2.690633269001e+00-2.980232238770e-08
    9.612128943296e-01 2.567500000000e+02-3.602943402769e-02-8.044263647298e-09
   -3.764442518427e-10 1.000000000000e+00 2.035000000000e+03 0.000000000000e+00
    2.400000000000e+00 0.000000000000e+00-1.350417733192e-08 1.300000000000e+01
    3.816060000000e+05 4.000000000000e+00
20 19  1 10 12  0  0.0 5.209636874497e-04 4.547473508865e-13 0.000000000000e+00
    1.100000000000e+01-7.115625000000e+01 5.062353724495e-09-1.878994015483e+00
   -3.604218363762e-06 4.472704837099e-03 9.551644325256e-06 5.153679082870e+03
    3.888000000000e+05-1.136213541031e-07 4.503231220170e-01 5.774199962616e-08
    9.300559430318e-01 1.812500000000e+02 2.237675141866e+00-8.248200713524e-09
    3.500145795122e-11 1.000000000000e+00 2.035000000000e+03 0.000000000000e+00
    2.400000000000e+00 0.000000000000e+00-8.381903171539e-09 1.100000000000e+01
    3.816060000000e+05 4.000000000000e+00
16 19  1 10 12  0  0.0-1.186784356833e-05-2.273736754432e-12 0.000000000000e+00
    9.200000000000e+01 5.500000000000e+01 3.717654855247e-09 1.477039827906e+00
    2.967193722725e-06 1.040730299428e-02 1.031905412674e-05 5.153762258530e+03
    3.888000000000e+05-8.754432201385e-08-2.490285473563e+00 1.024454832077e-07
    9.849731094550e-01 1.959375000000e+02 5.248698563534e-01-7.669248026393e-09
   -2.585821995580e-10 1.000000000000e+00 2.035000000000e+03 0.000000000000e+00
    3.400000000000e+00 0.000000000000e+00-1.071020960808e-08 9.200000000000e+01
    3.816060000000e+05 4.000000000000e+00
27 19  1 10 12  0  0.0-4.659919068217e-05-6.480149750132e-12 0.000000000000e+00
    9.200000000000e+01 7.621875000000e+01 4.194103272665e-09 5.641038402292e-01
    3.965571522713e-06 6.431415444240e-03 4.848465323448e-06 5.153705343246e+03
    3.888000000000e+05 4.470348358154e-08-1.530877224735e+00 1.378357410431e-07
    9.780815788751e-01 2.958125000000e+02 4.250829253358e-01-8.117480982809e-09
    2.400099973798e-10 1.000000000000e+00 2.035000000000e+03 0.000000000000e+00
    2.400000000000e+00 0.000000000000e+00 1.862645149231e-09 9.200000000000e+01
    3.816060000000e+05 4.000000000000e+00
14 19  1 10 12  0  0.0-9.337579831481e-05 5.684341886081e-13 0.000000000000e+00
    6.100000000000e+01 3.115625000000e+01 4.821629411647e-09 3.176193858252e-01
    1.681968569756e-06 1.003658911213e-02 7.301568984985e-06 5.153657052994e+03
    3.888000000000e+05-1.452863216400e-07 1.691936043745e+00 8.195638656616e-08
    9.601842405563e-01 2.410937500000e+02-1.949417801945e+00-8.302131531388e-09
    2.132231673151e-10 1.000000000000e+00 2.035000000000e+03 0.000000000000e+00
    2.400000000000e+00 0.000000000000e+00-9.778887033463e-09 6.100000000000e+01
    3.816060000000e+05 4.000000000000e+00
13 19  1 10 12  0  0.0-7.879082113504e-05 1.250555214938e-12 0.000000000000e+00
    4.400000000000e+01 2.028125000000e+01 4.630907181586e-09-5.660375238835e-01
    1.130625605583e-06 3.732379642315e-03 7.238239049911e-06 5.153661209106e+03
    3.888000000000e+05-3.352761268616e-08 1.735414252867e+00-1.862645149231e-08
    9.676176520848e-01 2.407812500000e+02 1.388794132644e+00-8.067121742287e-09
    2.446530479243e-10 1.000000000000e+00 2.035000000000e+03 0.000000000000e+00
    2.400000000000e+00 0.000000000000e+00-1.117587089539e-08 4.400000000000e+01
    3.816060000000e+05 4.000000000000e+00
15 19  1 10 12  0  0.0-3.328169696033e-04 1.591615728103e-12 0.000000000000e+00
    7.500000000000e+01 2.278125000000e+01 5.497371844746e-09-3.350883597866e-01
    1.288950443268e-06 1.117305085063e-02 7.785856723785e-06 5.153617376328e+03
    3.888000000000e+05 2.980232238770e-08 1.523657406561e+00 1.285225152969e-07
    9.276241562524e-01 2.103437500000e+02 7.553658684090e-01-8.601072554910e-09
    2.785830326729e-10 1.000000000000e+00 2.035000000000e+03 0.000000000000e+00
    2.400000000000e+00 0.000000000000e+00-1.117587089539e-08 7.500000000000e+01
    3.816060000000e+05 4.000000000000e+00
10 19  1 10 12  0  0.0 1.379670575261e-04-6.366462912410e-12 0.000000000000e+00
    6.700000000000e+01-6.406250000000e+01 4.326965949786e-09 2.668453755878e+00
   -3.300607204437e-06 4.214975284413e-03 1.029483973980e-05 5.153671037674e+03
    3.888000000000e+05-8.754432201385e-08 5.641176326209e-01-3.725290298462e-08
    9.624447093882e-01 1.837500000000e+02-2.790540691804e+00-7.808896700463e-09
    9.357532635937e-11 1.000000000000e+00 2.035000000000e+03 0.000000000000e+00
    2.400000000000e+00 0.000000000000e+00 1.862645149231e-09 6.700000000000e+01
    3.816060000000e+05 4.000000000000e+00
21 19  1 10 12  0  0.0-2.716816961765e-04 6.934897101019e-12 0.000000000000e+00
    9.600000000000e+01-6.359375000000e+01 4.931276836045e-09 2.930232028406e+00
   -3.386288881302e-06 2.470349054784e-02 2.497807145119e-06 5.153559223175e+03
    3.888000000000e+05 4.731118679047e-07-5.352707664845e-01-5.215406417847e-08
    9.469090006864e-01 3.216562500000e+02-1.495318304661e+00-8.116409509606e-09
   -1.246480492344e-10 1.000000000000e+00 2.035000000000e+03 0.000000000000e+00
    2.400000000000e+00 0.000000000000e+00-9.778887033463e-09 9.600000000000e+01
    3.816060000000e+05 4.000000000000e+00
17 19  1 10 12  0  0.0-6.713904440403e-06 5.229594535194e-12 0.000000000000e+00
    8.700000000000e+01 7.065625000000e+01 4.120885937154e-09 5.343250440742e-01
    3.591179847717e-06 1.300817413721e-02 5.533918738365e-06 5.153675012589e+03
    3.888000000000e+05-1.601874828339e-07-1.475490831727e+00-4.470348358154e-08
    9.835047888193e-01 2.836562500000e+02-1.736066047239e+00-8.246772082588e-09
    2.453673633927e-10 1.000000000000e+00 2.035000000000e+03 0.000000000000e+00
    3.400000000000e+00 0.000000000000e+00-1.117587089539e-08 8.700000000000e+01
    3.816060000000e+05 4.000000000000e+00
12 19  1 10 12  0  0.0 2.775117754936e-04-3.069544618484e-12 0.000000000000e+00
    6.600000000000e+01 3.768750000000e+01 3.664795510586e-09-2.922273658965e+00
    1.989305019379e-06 7.267404696904e-03 1.027807593346e-05 5.153721050262e+03
    3.888000000000e+05 1.862645149231e-09-2.509189643306e+00-2.793967723846e-08
    9.846031711199e-01 1.927500000000e+02 1.022145069336e+00-7.448167388925e-09
   -1.296482575132e-10 1.000000000000e+00 2.035000000000e+03 0.000000000000e+00
    2.400000000000e+00 0.000000000000e+00-1.257285475731e-08 6.600000000000e+01
    3.816060000000e+05 4.000000000000e+00
 9 19  1 10 12  0  0.0 4.734196700156e-04-4.547473508865e-12 0.000000000000e+00
    5.200000000000e+01 2.625000000000e+01 4.842344560231e-09 9.576542202908e-01
    1.255422830582e-06 1.480790670030e-03 8.104369044304e-06 5.153752811432e+03
    3.888000000000e+05 0.000000000000e+00 1.600211504421e+00 5.587935447693e-09
    9.520832380656e-01 2.172500000000e+02 1.696837198206e+00-8.120338244682e-09
    3.235849071817e-10 1.000000000000e+00 2.035000000000e+03 0.000000000000e+00
    2.400000000000e+00 0.000000000000e+00 1.396983861923e-09 5.200000000000e+01
    3.816060000000e+05 4.000000000000e+00
